GLOBALSTAR M024         
1 25883U 99043A   25143.79025794 -.00000030  00000+0  12488-2 0  9997
2 25883  52.0027  75.6672 0001866  51.3654 348.5055 11.10167808112155
GLOBALSTAR M027         
1 25884U 99043B   25143.69558419 -.00000082  00000+0 -69029-3 0  9994
2 25884  52.0167 153.1722 0021619 311.5074  48.3864 11.04372103138536
GLOBALSTAR M054         
1 25885U 99043C   25143.84594564  .00000020  00000+0  23222-2 0  9997
2 25885  52.0146 284.2238 0006571 131.4312  27.6927 11.39216537116279
GLOBALSTAR M053         
1 25886U 99043D   25143.72324622 -.00000070  00000+0 -43677-4 0  9996
2 25886  51.9971 230.2539 0002867  47.4797 123.5851 11.27665278116680
GLOBALSTAR M050         
1 25908U 99049B   25143.81973506 -.00000149  00000+0 -68869-3 0  9994
2 25908  51.9962 183.7398 0008949 341.8534 190.9225 12.07454336145244
GLOBALSTAR M055         
1 25910U 99049D   25143.54155659 -.00000088  00000+0  57029-4 0  9996
2 25910  52.0027  69.9821 0007469  78.1244 282.0445 12.29427634165256
